{"type":"FeatureCollection","metadata":{"generated":1790875757000,"url":"https://earthquake.usgs.gov/fdsnws/event/1/query?format=geojson&eventtype=earthquake&starttime=2026-09-01T17%3A00%3A00&latitude=8.58&longitude=99.79&maxradiuskm=2000&minmagnitude=4&orderby=time","title":"USGS Earthquakes","status":200,"api":"2.7.0","count":21},"features":[{"type":"Feature","properties":{"mag":4.4,"place":"47 km S of Trà My, Vietnam","time":1790767481639,"updated":1790769593040,"tz":null,"url":"https://earthquake.usgs.gov/earthquakes/eventpage/us6000tyjl","detail":"https://earthquake.usgs.gov/fdsnws/event/1/query?eventid=us6000tyjl&format=geojson","felt":null,"cdi":null,"mmi":null,"alert":null,"status":"reviewed","tsunami":0,"sig":298,"net":"us","code":"6000tyjl","ids":",us6000tyjl,","sources":",us,","types":",origin,phase-data,","nst":28,"dmin":4.178,"rms":0.76,"gap":102,"magType":"mb","type":"earthquake","title":"M 4.4 - 47 km S of Trà My, Vietnam"},"geometry":{"type":"Point","coordinates":[108.2955,14.9174,10]},"id":"us6000tyjl"},
{"type":"Feature","properties":{"mag":4.5,"place":"112 km SSW of Banda Aceh, Indonesia","time":1790735750369,"updated":1790737310040,"tz":null,"url":"https://earthquake.usgs.gov/earthquakes/eventpage/us6000tyh0","detail":"https://earthquake.usgs.gov/fdsnws/event/1/query?eventid=us6000tyh0&format=geojson","felt":null,"cdi":null,"mmi":null,"alert":null,"status":"reviewed","tsunami":0,"sig":312,"net":"us","code":"6000tyh0","ids":",us6000tyh0,","sources":",us,","types":",origin,phase-data,","nst":31,"dmin":5.811,"rms":0.92,"gap":183,"magType":"mb","type":"earthquake","title":"M 4.5 - 112 km SSW of Banda Aceh, Indonesia"},"geometry":{"type":"Point","coordinates":[94.8515,4.6488,33.873]},"id":"us6000tyh0"},
{"type":"Feature","properties":{"mag":4.7,"place":"115 km WSW of Banda Aceh, Indonesia","time":1790606590687,"updated":1790614071040,"tz":null,"url":"https://earthquake.usgs.gov/earthquakes/eventpage/us6000ty5h","detail":"https://earthquake.usgs.gov/fdsnws/event/1/query?eventid=us6000ty5h&format=geojson","felt":null,"cdi":null,"mmi":null,"alert":null,"status":"reviewed","tsunami":0,"sig":340,"net":"us","code":"6000ty5h","ids":",us6000ty5h,","sources":",us,","types":",origin,phase-data,","nst":54,"dmin":6.196,"rms":0.5,"gap":73,"magType":"mb","type":"earthquake","title":"M 4.7 - 115 km WSW of Banda Aceh, Indonesia"},"geometry":{"type":"Point","coordinates":[94.3303,5.2548,45.734]},"id":"us6000ty5h"},
{"type":"Feature","properties":{"mag":4.7,"place":"North Indian Ocean","time":1790419995123,"updated":1790420897040,"tz":null,"url":"https://earthquake.usgs.gov/earthquakes/eventpage/us6000txsh","detail":"https://earthquake.usgs.gov/fdsnws/event/1/query?eventid=us6000txsh&format=geojson","felt":null,"cdi":null,"mmi":null,"alert":null,"status":"reviewed","tsunami":0,"sig":340,"net":"us","code":"6000txsh","ids":",us6000txsh,","sources":",us,","types":",origin,phase-data,","nst":42,"dmin":10.297,"rms":0.79,"gap":65,"magType":"mb","type":"earthquake","title":"M 4.7 - North Indian Ocean"},"geometry":{"type":"Point","coordinates":[89.4977,1.831,10]},"id":"us6000txsh"},
{"type":"Feature","properties":{"mag":4.7,"place":"80 km SW of Labuan, Indonesia","time":1790344046836,"updated":1790346823040,"tz":null,"url":"https://earthquake.usgs.gov/earthquakes/eventpage/us6000txkc","detail":"https://earthquake.usgs.gov/fdsnws/event/1/query?eventid=us6000txkc&format=geojson","felt":null,"cdi":null,"mmi":null,"alert":null,"status":"reviewed","tsunami":0,"sig":340,"net":"us","code":"6000txkc","ids":",us6000txkc,","sources":",us,","types":",origin,phase-data,","nst":48,"dmin":3.516,"rms":1.06,"gap":124,"magType":"mb","type":"earthquake","title":"M 4.7 - 80 km SW of Labuan, Indonesia"},"geometry":{"type":"Point","coordinates":[105.3554,-6.9267,10]},"id":"us6000txkc"},
{"type":"Feature","properties":{"mag":4.5,"place":"71 km SW of Labuan, Indonesia","time":1790116059202,"updated":1790632747040,"tz":null,"url":"https://earthquake.usgs.gov/earthquakes/eventpage/us6000twzp","detail":"https://earthquake.usgs.gov/fdsnws/event/1/query?eventid=us6000twzp&format=geojson","felt":null,"cdi":null,"mmi":null,"alert":null,"status":"reviewed","tsunami":0,"sig":312,"net":"us","code":"6000twzp","ids":",us6000twzp,","sources":",us,","types":",origin,phase-data,","nst":40,"dmin":2.134,"rms":0.65,"gap":103,"magType":"mb","type":"earthquake","title":"M 4.5 - 71 km SW of Labuan, Indonesia"},"geometry":{"type":"Point","coordinates":[105.4674,-6.9129,35]},"id":"us6000twzp"},
{"type":"Feature","properties":{"mag":4.6,"place":"34 km S of Bengkulu, Indonesia","time":1789749443949,"updated":1790367891040,"tz":null,"url":"https://earthquake.usgs.gov/earthquakes/eventpage/us7000tid2","detail":"https://earthquake.usgs.gov/fdsnws/event/1/query?eventid=us7000tid2&format=geojson","felt":null,"cdi":null,"mmi":null,"alert":null,"status":"reviewed","tsunami":0,"sig":326,"net":"us","code":"7000tid2","ids":",us7000tid2,","sources":",us,","types":",origin,phase-data,","nst":38,"dmin":6.084,"rms":0.82,"gap":150,"magType":"mb","type":"earthquake","title":"M 4.6 - 34 km S of Bengkulu, Indonesia"},"geometry":{"type":"Point","coordinates":[102.2302,-4.1133,86.112]},"id":"us7000tid2"},
{"type":"Feature","properties":{"mag":4.5,"place":"214 km SW of Labuan, Indonesia","time":1789672653061,"updated":1790865988040,"tz":null,"url":"https://earthquake.usgs.gov/earthquakes/eventpage/us7000ti5c","detail":"https://earthquake.usgs.gov/fdsnws/event/1/query?eventid=us7000ti5c&format=geojson","felt":null,"cdi":null,"mmi":null,"alert":null,"status":"reviewed","tsunami":0,"sig":312,"net":"us","code":"7000ti5c","ids":",us7000ti5c,","sources":",us,","types":",origin,phase-data,","nst":35,"dmin":2.932,"rms":0.83,"gap":150,"magType":"mb","type":"earthquake","title":"M 4.5 - 214 km SW of Labuan, Indonesia"},"geometry":{"type":"Point","coordinates":[104.4708,-7.7582,10]},"id":"us7000ti5c"},
{"type":"Feature","properties":{"mag":4,"place":"93 km N of Payakumbuh, Indonesia","time":1789519188321,"updated":1790119361040,"tz":null,"url":"https://earthquake.usgs.gov/earthquakes/eventpage/us6000tww3","detail":"https://earthquake.usgs.gov/fdsnws/event/1/query?eventid=us6000tww3&format=geojson","felt":null,"cdi":null,"mmi":null,"alert":null,"status":"reviewed","tsunami":0,"sig":246,"net":"us","code":"6000tww3","ids":",us6000tww3,","sources":",us,","types":",origin,phase-data,","nst":32,"dmin":2.598,"rms":0.63,"gap":155,"magType":"mb","type":"earthquake","title":"M 4.0 - 93 km N of Payakumbuh, Indonesia"},"geometry":{"type":"Point","coordinates":[100.504,0.6181,222.544]},"id":"us6000tww3"},
{"type":"Feature","properties":{"mag":4.5,"place":"55 km SSW of Bengkulu, Indonesia","time":1789488769382,"updated":1789508855040,"tz":null,"url":"https://earthquake.usgs.gov/earthquakes/eventpage/us7000thn3","detail":"https://earthquake.usgs.gov/fdsnws/event/1/query?eventid=us7000thn3&format=geojson","felt":null,"cdi":null,"mmi":null,"alert":null,"status":"reviewed","tsunami":0,"sig":312,"net":"us","code":"7000thn3","ids":",us7000thn3,","sources":",us,","types":",origin,phase-data,","nst":41,"dmin":6.268,"rms":0.53,"gap":150,"magType":"mb","type":"earthquake","title":"M 4.5 - 55 km SSW of Bengkulu, Indonesia"},"geometry":{"type":"Point","coordinates":[102.0754,-4.2614,76.224]},"id":"us7000thn3"},
{"type":"Feature","properties":{"mag":4.5,"place":"71 km NE of Simao, China","time":1789376849558,"updated":1789458075040,"tz":null,"url":"https://earthquake.usgs.gov/earthquakes/eventpage/us7000thbx","detail":"https://earthquake.usgs.gov/fdsnws/event/1/query?eventid=us7000thbx&format=geojson","felt":null,"cdi":null,"mmi":null,"alert":null,"status":"reviewed","tsunami":0,"sig":312,"net":"us","code":"7000thbx","ids":",us7000thbx,","sources":",us,","types":",origin,phase-data,","nst":37,"dmin":3.2,"rms":0.57,"gap":75,"magType":"mb","type":"earthquake","title":"M 4.5 - 71 km NE of Simao, China"},"geometry":{"type":"Point","coordinates":[101.406,23.2962,10]},"id":"us7000thbx"},
{"type":"Feature","properties":{"mag":4.5,"place":"157 km SSE of Port Blair, India","time":1789185549231,"updated":1790826425040,"tz":null,"url":"https://earthquake.usgs.gov/earthquakes/eventpage/us7000ti3u","detail":"https://earthquake.usgs.gov/fdsnws/event/1/query?eventid=us7000ti3u&format=geojson","felt":null,"cdi":null,"mmi":null,"alert":null,"status":"reviewed","tsunami":0,"sig":312,"net":"us","code":"7000ti3u","ids":",us7000ti3u,","sources":",us,","types":",origin,phase-data,","nst":17,"dmin":6.548,"rms":0.69,"gap":89,"magType":"mb","type":"earthquake","title":"M 4.5 - 157 km SSE of Port Blair, India"},"geometry":{"type":"Point","coordinates":[93.1932,10.3114,68.633]},"id":"us7000ti3u"},
{"type":"Feature","properties":{"mag":6.5,"place":"126 km NNE of Teluknaga, Indonesia","time":1789161835907,"updated":1789248599017,"tz":null,"url":"https://earthquake.usgs.gov/earthquakes/eventpage/us7000tgrk","detail":"https://earthquake.usgs.gov/fdsnws/event/1/query?eventid=us7000tgrk&format=geojson","felt":21,"cdi":3.4,"mmi":3.013,"alert":"green","status":"reviewed","tsunami":0,"sig":657,"net":"us","code":"7000tgrk","ids":",us7000tgrk,usauto7000tgrk,","sources":",us,usauto,","types":",dyfi,ground-failure,internal-moment-tensor,losspager,moment-tensor,origin,phase-data,shakemap,","nst":116,"dmin":5.557,"rms":0.73,"gap":23,"magType":"mww","type":"earthquake","title":"M 6.5 - 126 km NNE of Teluknaga, Indonesia"},"geometry":{"type":"Point","coordinates":[106.8742,-4.9832,372]},"id":"us7000tgrk"},
{"type":"Feature","properties":{"mag":4.4,"place":"107 km SSW of Pagar Alam, Indonesia","time":1788913400524,"updated":1790737229092,"tz":null,"url":"https://earthquake.usgs.gov/earthquakes/eventpage/us7000tfyn","detail":"https://earthquake.usgs.gov/fdsnws/event/1/query?eventid=us7000tfyn&format=geojson","felt":1,"cdi":1,"mmi":null,"alert":null,"status":"reviewed","tsunami":0,"sig":298,"net":"us","code":"7000tfyn","ids":",us7000tfyn,","sources":",us,","types":",dyfi,origin,phase-data,","nst":29,"dmin":6.123,"rms":0.5,"gap":145,"magType":"mb","type":"earthquake","title":"M 4.4 - 107 km SSW of Pagar Alam, Indonesia"},"geometry":{"type":"Point","coordinates":[102.9173,-4.9415,45.744]},"id":"us7000tfyn"},
{"type":"Feature","properties":{"mag":5.2,"place":"79 km SSW of Sibolga, Indonesia","time":1788617166990,"updated":1790792936040,"tz":null,"url":"https://earthquake.usgs.gov/earthquakes/eventpage/us7000tejg","detail":"https://earthquake.usgs.gov/fdsnws/event/1/query?eventid=us7000tejg&format=geojson","felt":null,"cdi":null,"mmi":null,"alert":null,"status":"reviewed","tsunami":0,"sig":416,"net":"us","code":"7000tejg","ids":",us7000tejg,","sources":",us,","types":",origin,phase-data,","nst":84,"dmin":1.669,"rms":0.89,"gap":43,"magType":"mb","type":"earthquake","title":"M 5.2 - 79 km SSW of Sibolga, Indonesia"},"geometry":{"type":"Point","coordinates":[98.5931,1.0484,84.747]},"id":"us7000tejg"},
{"type":"Feature","properties":{"mag":4.9,"place":"63 km WSW of Pagar Alam, Indonesia","time":1788605957893,"updated":1789566862927,"tz":null,"url":"https://earthquake.usgs.gov/earthquakes/eventpage/us7000teiy","detail":"https://earthquake.usgs.gov/fdsnws/event/1/query?eventid=us7000teiy&format=geojson","felt":1,"cdi":1,"mmi":null,"alert":null,"status":"reviewed","tsunami":0,"sig":369,"net":"us","code":"7000teiy","ids":",us7000teiy,","sources":",us,","types":",dyfi,origin,phase-data,","nst":51,"dmin":6.149,"rms":0.88,"gap":103,"magType":"mb","type":"earthquake","title":"M 4.9 - 63 km WSW of Pagar Alam, Indonesia"},"geometry":{"type":"Point","coordinates":[102.745,-4.2988,88.845]},"id":"us7000teiy"},
{"type":"Feature","properties":{"mag":4.5,"place":"79 km SW of Blangpidie, Indonesia","time":1788599660961,"updated":1789564764040,"tz":null,"url":"https://earthquake.usgs.gov/earthquakes/eventpage/us7000teim","detail":"https://earthquake.usgs.gov/fdsnws/event/1/query?eventid=us7000teim&format=geojson","felt":null,"cdi":null,"mmi":null,"alert":null,"status":"reviewed","tsunami":0,"sig":312,"net":"us","code":"7000teim","ids":",us7000teim,","sources":",us,","types":",origin,phase-data,","nst":30,"dmin":4.792,"rms":0.84,"gap":98,"magType":"mb","type":"earthquake","title":"M 4.5 - 79 km SW of Blangpidie, Indonesia"},"geometry":{"type":"Point","coordinates":[96.2796,3.2828,47.471]},"id":"us7000teim"},
{"type":"Feature","properties":{"mag":4.5,"place":"85 km NW of Sinabang, Indonesia","time":1788579469005,"updated":1790397770040,"tz":null,"url":"https://earthquake.usgs.gov/earthquakes/eventpage/us7000tgm2","detail":"https://earthquake.usgs.gov/fdsnws/event/1/query?eventid=us7000tgm2&format=geojson","felt":null,"cdi":null,"mmi":null,"alert":null,"status":"reviewed","tsunami":0,"sig":312,"net":"us","code":"7000tgm2","ids":",us7000tgm2,","sources":",us,","types":",origin,phase-data,","nst":26,"dmin":3.008,"rms":1,"gap":72,"magType":"mb","type":"earthquake","title":"M 4.5 - 85 km NW of Sinabang, Indonesia"},"geometry":{"type":"Point","coordinates":[95.941,3.1128,36.39]},"id":"us7000tgm2"},
{"type":"Feature","properties":{"mag":4.4,"place":"75 km NNW of Sinabang, Indonesia","time":1788575530242,"updated":1790399161040,"tz":null,"url":"https://earthquake.usgs.gov/earthquakes/eventpage/us7000tgm0","detail":"https://earthquake.usgs.gov/fdsnws/event/1/query?eventid=us7000tgm0&format=geojson","felt":null,"cdi":null,"mmi":null,"alert":null,"status":"reviewed","tsunami":0,"sig":298,"net":"us","code":"7000tgm0","ids":",us7000tgm0,","sources":",us,","types":",origin,phase-data,","nst":27,"dmin":2.9,"rms":0.87,"gap":132,"magType":"mb","type":"earthquake","title":"M 4.4 - 75 km NNW of Sinabang, Indonesia"},"geometry":{"type":"Point","coordinates":[96.0446,3.0711,35]},"id":"us7000tgm0"},
{"type":"Feature","properties":{"mag":4.4,"place":"76 km SW of Kēng Tung, Burma (Myanmar)","time":1788570563076,"updated":1789782194040,"tz":null,"url":"https://earthquake.usgs.gov/earthquakes/eventpage/us7000tegc","detail":"https://earthquake.usgs.gov/fdsnws/event/1/query?eventid=us7000tegc&format=geojson","felt":null,"cdi":null,"mmi":null,"alert":null,"status":"reviewed","tsunami":0,"sig":298,"net":"us","code":"7000tegc","ids":",us7000tegc,","sources":",us,","types":",origin,phase-data,","nst":34,"dmin":1.284,"rms":0.86,"gap":86,"magType":"mb","type":"earthquake","title":"M 4.4 - 76 km SW of Kēng Tung, Burma (Myanmar)"},"geometry":{"type":"Point","coordinates":[99.4047,21.1417,10]},"id":"us7000tegc"},
{"type":"Feature","properties":{"mag":5.1,"place":"23 km WSW of Padangsidempuan, Indonesia","time":1788539080634,"updated":1789331891040,"tz":null,"url":"https://earthquake.usgs.gov/earthquakes/eventpage/us7000teck","detail":"https://earthquake.usgs.gov/fdsnws/event/1/query?eventid=us7000teck&format=geojson","felt":null,"cdi":null,"mmi":null,"alert":null,"status":"reviewed","tsunami":0,"sig":400,"net":"us","code":"7000teck","ids":",us7000teck,","sources":",us,","types":",origin,phase-data,","nst":83,"dmin":4.261,"rms":0.76,"gap":41,"magType":"mb","type":"earthquake","title":"M 5.1 - 23 km WSW of Padangsidempuan, Indonesia"},"geometry":{"type":"Point","coordinates":[99.0782,1.3016,122.009]},"id":"us7000teck"}],"bbox":[89.4977,-7.7582,10,108.2955,23.2962,372]}